{
  "type": "FeatureCollection",
  "features": [
    {
      "type": "Feature",
      "properties": {
        "norad_id": 41330,
        "name": "COSMOS 2514 (751)",
        "group": "gnss",
        "lat": -52.224659093313804,
        "lon": -77.4278519928965,
        "alt_km": 19130.02684503889,
        "timestamp": "2025-12-14T18:52:55.746251+00:00",
        "meta_object_name": "COSMOS 2514 (751)",
        "meta_object_id": "2016-008A",
        "meta_epoch": "2025-12-13T22:15:20.195712",
        "meta_mean_motion": 2.13102653,
        "meta_eccentricity": 0.00120546,
        "meta_inclination": 65.1331,
        "meta_ra_of_asc_node": 319.3632,
        "meta_arg_of_pericenter": 220.0811,
        "meta_mean_anomaly": 139.8277,
        "meta_ephemeris_type": 0,
        "meta_classification_type": "U",
        "meta_norad_cat_id": 41330,
        "meta_element_set_no": 999,
        "meta_rev_at_epoch": 7667,
        "meta_bstar": 0,
        "meta_mean_motion_dot": -6.4e-07,
        "meta_mean_motion_ddot": 0,
        "tle_line1": "1 41330U 16008A   25347.92731708 -.00000064  00000+0  00000+0 0  9993",
        "tle_line2": "2 41330  65.1331 319.3632 0012054 220.0811 139.8277  2.13102653 76671"
      },
      "geometry": {
        "type": "Point",
        "coordinates": [
          -77.4278519928965,
          -52.224659093313804
        ]
      }
    },
    {
      "type": "Feature",
      "properties": {
        "norad_id": 41384,
        "name": "IRNSS-1F",
        "group": "gnss",
        "lat": -4.2820796967543115,
        "lon": 39.61669517274358,
        "alt_km": 35830.22687592157,
        "timestamp": "2025-12-14T18:52:55.746263+00:00",
        "meta_object_name": "IRNSS-1F",
        "meta_object_id": "2016-015A",
        "meta_epoch": "2025-12-13T22:09:47.992896",
        "meta_mean_motion": 1.00273157,
        "meta_eccentricity": 0.00225767,
        "meta_inclination": 4.8836,
        "meta_ra_of_asc_node": 101.2709,
        "meta_arg_of_pericenter": 180.8181,
        "meta_mean_anomaly": 165.5757,
        "meta_ephemeris_type": 0,
        "meta_classification_type": "U",
        "meta_norad_cat_id": 41384,
        "meta_element_set_no": 999,
        "meta_rev_at_epoch": 3580,
        "meta_bstar": 0,
        "meta_mean_motion_dot": 1.74e-06,
        "meta_mean_motion_ddot": 0,
        "tle_line1": "1 41384U 16015A   25347.92347214  .00000174  00000+0  00000+0 0  9996",
        "tle_line2": "2 41384   4.8836 101.2709 0022576 180.8181 165.5757  1.00273157 35808"
      },
      "geometry": {
        "type": "Point",
        "coordinates": [
          39.61669517274358,
          -4.2820796967543115
        ]
      }
    },
    {
      "type": "Feature",
      "properties": {
        "norad_id": 41434,
        "name": "BEIDOU-2 IGSO-6 (C13)",
        "group": "gnss",
        "lat": 48.548900774101064,
        "lon": 80.75965149124545,
        "alt_km": 36028.78252697972,
        "timestamp": "2025-12-14T18:52:55.746277+00:00",
        "meta_object_name": "BEIDOU-2 IGSO-6 (C13)",
        "meta_object_id": "2016-021A",
        "meta_epoch": "2025-12-11T15:29:12.615360",
        "meta_mean_motion": 1.00293077,
        "meta_eccentricity": 0.00608616,
        "meta_inclination": 59.9644,
        "meta_ra_of_asc_node": 39.9082,
        "meta_arg_of_pericenter": 229.9753,
        "meta_mean_anomaly": 135.9177,
        "meta_ephemeris_type": 0,
        "meta_classification_type": "U",
        "meta_norad_cat_id": 41434,
        "meta_element_set_no": 999,
        "meta_rev_at_epoch": 3560,
        "meta_bstar": 0,
        "meta_mean_motion_dot": -1.62e-06,
        "meta_mean_motion_ddot": 0,
        "tle_line1": "1 41434U 16021A   25345.64528490 -.00000162  00000+0  00000+0 0  9991",
        "tle_line2": "2 41434  59.9644  39.9082 0060861 229.9753 135.9177  1.00293077 35600"
      },
      "geometry": {
        "type": "Point",
        "coordinates": [
          80.75965149124545,
          48.548900774101064
        ]
      }
    },
    {
      "type": "Feature",
      "properties": {
        "norad_id": 41469,
        "name": "IRNSS-1G",
        "group": "gnss",
        "lat": 2.6787548364623377,
        "lon": 136.24689998940863,
        "alt_km": 35778.07711249865,
        "timestamp": "2025-12-14T18:52:55.746290+00:00",
        "meta_object_name": "IRNSS-1G",
        "meta_object_id": "2016-027A",
        "meta_epoch": "2025-12-13T19:12:02.714688",
        "meta_mean_motion": 1.00279655,
        "meta_eccentricity": 0.00025827,
        "meta_inclination": 4.7364,
        "meta_ra_of_asc_node": 102.0702,
        "meta_arg_of_pericenter": 335.0169,
        "meta_mean_anomaly": 63.0089,
        "meta_ephemeris_type": 0,
        "meta_classification_type": "U",
        "meta_norad_cat_id": 41469,
        "meta_element_set_no": 999,
        "meta_rev_at_epoch": 3532,
        "meta_bstar": 0,
        "meta_mean_motion_dot": -3.19e-06,
        "meta_mean_motion_ddot": 0,
        "tle_line1": "1 41469U 16027A   25347.80003142 -.00000319  00000+0  00000+0 0  9991",
        "tle_line2": "2 41469   4.7364 102.0702 0002582 335.0169  63.0089  1.00279655 35320"
      },
      "geometry": {
        "type": "Point",
        "coordinates": [
          136.24689998940863,
          2.6787548364623377
        ]
      }
    },
    {
      "type": "Feature",
      "properties": {
        "norad_id": 41549,
        "name": "GSAT0211 (GALILEO 14)",
        "group": "gnss",
        "lat": 50.86040566350978,
        "lon": -12.013558723618155,
        "alt_km": 23216.414999490902,
        "timestamp": "2025-12-14T18:52:55.746301+00:00",
        "meta_object_name": "GSAT0211 (GALILEO 14)",
        "meta_object_id": "2016-030A",
        "meta_epoch": "2025-12-11T02:09:03.353760",
        "meta_mean_motion": 1.70473055,
        "meta_eccentricity": 0.00041282,
        "meta_inclination": 55.1527,
        "meta_ra_of_asc_node": 226.8689,
        "meta_arg_of_pericenter": 18.4657,
        "meta_mean_anomaly": 341.6286,
        "meta_ephemeris_type": 0,
        "meta_classification_type": "U",
        "meta_norad_cat_id": 41549,
        "meta_element_set_no": 999,
        "meta_rev_at_epoch": 5946,
        "meta_bstar": 0,
        "meta_mean_motion_dot": 9e-08,
        "meta_mean_motion_ddot": 0,
        "tle_line1": "1 41549U 16030A   25345.08962215  .00000009  00000+0  00000+0 0  9992",
        "tle_line2": "2 41549  55.1527 226.8689 0004128  18.4657 341.6286  1.70473055 59463"
      },
      "geometry": {
        "type": "Point",
        "coordinates": [
          -12.013558723618155,
          50.86040566350978
        ]
      }
    },
    {
      "type": "Feature",
      "properties": {
        "norad_id": 41550,
        "name": "GSAT0210 (GALILEO 13)",
        "group": "gnss",
        "lat": -38.24055719899541,
        "lon": -166.4938582318883,
        "alt_km": 23225.558694470947,
        "timestamp": "2025-12-14T18:52:55.746312+00:00",
        "meta_object_name": "GSAT0210 (GALILEO 13)",
        "meta_object_id": "2016-030B",
        "meta_epoch": "2025-12-11T08:19:41.751264",
        "meta_mean_motion": 1.70473653,
        "meta_eccentricity": 0.00011945,
        "meta_inclination": 55.152,
        "meta_ra_of_asc_node": 226.8599,
        "meta_arg_of_pericenter": 242.2312,
        "meta_mean_anomaly": 117.8354,
        "meta_ephemeris_type": 0,
        "meta_classification_type": "U",
        "meta_norad_cat_id": 41550,
        "meta_element_set_no": 999,
        "meta_rev_at_epoch": 5946,
        "meta_bstar": 0,
        "meta_mean_motion_dot": 1e-07,
        "meta_mean_motion_ddot": 0,
        "tle_line1": "1 41550U 16030B   25345.34701101  .00000010  00000+0  00000+0 0  9990",
        "tle_line2": "2 41550  55.1520 226.8599 0001194 242.2312 117.8354  1.70473653 59466"
      },
      "geometry": {
        "type": "Point",
        "coordinates": [
          -166.4938582318883,
          -38.24055719899541
        ]
      }
    },
    {
      "type": "Feature",
      "properties": {
        "norad_id": 41586,
        "name": "BEIDOU-2 G7 (C03)",
        "group": "gnss",
        "lat": 1.3554395225582274,
        "lon": 117.33889125146972,
        "alt_km": 35775.207709240436,
        "timestamp": "2025-12-14T18:52:55.746324+00:00",
        "meta_object_name": "BEIDOU-2 G7 (C03)",
        "meta_object_id": "2016-037A",
        "meta_epoch": "2025-12-13T15:41:15.400608",
        "meta_mean_motion": 1.00266893,
        "meta_eccentricity": 0.00045907,
        "meta_inclination": 1.7596,
        "meta_ra_of_asc_node": 67.775,
        "meta_arg_of_pericenter": 358.4711,
        "meta_mean_anomaly": 2.0592,
        "meta_ephemeris_type": 0,
        "meta_classification_type": "U",
        "meta_norad_cat_id": 41586,
        "meta_element_set_no": 999,
        "meta_rev_at_epoch": 502,
        "meta_bstar": 0,
        "meta_mean_motion_dot": -3.38e-06,
        "meta_mean_motion_ddot": 0,
        "tle_line1": "1 41586U 16037A   25347.65365047 -.00000338  00000+0  00000+0 0  9991",
        "tle_line2": "2 41586   1.7596  67.7750 0004590 358.4711   2.0592  1.00266893  5023"
      },
      "geometry": {
        "type": "Point",
        "coordinates": [
          117.33889125146972,
          1.3554395225582274
        ]
      }
    }
  ]
}